[{"OBJECT_NAME":"STARLINK-32604","OBJECT_ID":"2024-217P","EPOCH":"2026-03-09T15:55:50.488320","MEAN_MOTION":15.30198031,"ECCENTRICITY":0.00012994,"INCLINATION":53.161,"RA_OF_ASC_NODE":194.2832,"ARG_OF_PERICENTER":91.7768,"MEAN_ANOMALY":268.3382,"EPHEMERIS_TYPE":0,"CLASSIFICATION_TYPE":"U","NORAD_CAT_ID":62070,"ELEMENT_SET_NO":999,"REV_AT_EPOCH":7341,"BSTAR":0.0015061192,"MEAN_MOTION_DOT":0.00044513,"MEAN_MOTION_DDOT":0},{"OBJECT_NAME":"SPACEMOBILE-005 DEB","OBJECT_ID":"2024-163K","EPOCH":"2026-03-09T07:33:15.902496","MEAN_MOTION":15.31481997,"ECCENTRICITY":0.00072885,"INCLINATION":52.9762,"RA_OF_ASC_NODE":31.7924,"ARG_OF_PERICENTER":175.8731,"MEAN_ANOMALY":184.2329,"EPHEMERIS_TYPE":0,"CLASSIFICATION_TYPE":"U","NORAD_CAT_ID":62373,"ELEMENT_SET_NO":999,"REV_AT_EPOCH":8280,"BSTAR":0.00063853778,"MEAN_MOTION_DOT":0.00019381,"MEAN_MOTION_DDOT":0}]
